[{"OBJECT_NAME":"ONEWEB-0627","OBJECT_ID":"2023-004AE","EPOCH":"2025-11-24T17:13:37.710912","MEAN_MOTION":13.17648553,"ECCENTRICITY":0.00012489,"INCLINATION":87.9122,"RA_OF_ASC_NODE":46.54,"ARG_OF_PERICENTER":110.9634,"MEAN_ANOMALY":249.1631,"EPHEMERIS_TYPE":0,"CLASSIFICATION_TYPE":"U","NORAD_CAT_ID":55168,"ELEMENT_SET_NO":999,"REV_AT_EPOCH":14065,"BSTAR":0.00011598183,"MEAN_MOTION_DOT":5.8e-7,"MEAN_MOTION_DDOT":0},{"OBJECT_NAME":"ONEWEB-0628","OBJECT_ID":"2023-004AF","EPOCH":"2025-11-25T02:07:22.164672","MEAN_MOTION":13.12446708,"ECCENTRICITY":0.0001568,"INCLINATION":87.8954,"RA_OF_ASC_NODE":31.195,"ARG_OF_PERICENTER":123.1424,"MEAN_ANOMALY":236.9855,"EPHEMERIS_TYPE":0,"CLASSIFICATION_TYPE":"U","NORAD_CAT_ID":55169,"ELEMENT_SET_NO":999,"REV_AT_EPOCH":14126,"BSTAR":-0.0017865,"MEAN_MOTION_DOT":-6.3e-6,"MEAN_MOTION_DDOT":0},{"OBJECT_NAME":"ONEWEB-0629","OBJECT_ID":"2023-004AG","EPOCH":"2025-11-25T03:34:28.009920","MEAN_MOTION":13.17651984,"ECCENTRICITY":0.0001861,"INCLINATION":87.9129,"RA_OF_ASC_NODE":46.4518,"ARG_OF_PERICENTER":112.9393,"MEAN_ANOMALY":247.1935,"EPHEMERIS_TYPE":0,"CLASSIFICATION_TYPE":"U","NORAD_CAT_ID":55170,"ELEMENT_SET_NO":999,"REV_AT_EPOCH":14071,"BSTAR":0.00037383,"MEAN_MOTION_DOT":1.58e-6,"MEAN_MOTION_DDOT":0},{"OBJECT_NAME":"ONEWEB-0631","OBJECT_ID":"2023-004AH","EPOCH":"2025-11-25T01:39:40.809312","MEAN_MOTION":13.18685193,"ECCENTRICITY":0.0001639,"INCLINATION":87.9202,"RA_OF_ASC_NODE":15.9739,"ARG_OF_PERICENTER":82.3679,"MEAN_ANOMALY":277.7639,"EPHEMERIS_TYPE":0,"CLASSIFICATION_TYPE":"U","NORAD_CAT_ID":55171,"ELEMENT_SET_NO":999,"REV_AT_EPOCH":14277,"BSTAR":0.00014934,"MEAN_MOTION_DOT":7.2e-7,"MEAN_MOTION_DDOT":0},{"OBJECT_NAME":"ONEWEB-0709","OBJECT_ID":"2023-004AJ","EPOCH":"2025-11-24T17:29:45.834144","MEAN_MOTION":13.11415042,"ECCENTRICITY":0.00021,"INCLINATION":87.8861,"RA_OF_ASC_NODE":61.802,"ARG_OF_PERICENTER":81.833,"MEAN_ANOMALY":278.3037,"EPHEMERIS_TYPE":0,"CLASSIFICATION_TYPE":"U","NORAD_CAT_ID":55172,"ELEMENT_SET_NO":999,"REV_AT_EPOCH":13907,"BSTAR":0.00066626,"MEAN_MOTION_DOT":2.49e-6,"MEAN_MOTION_DDOT":0},{"OBJECT_NAME":"ONEWEB-0710","OBJECT_ID":"2023-004AK","EPOCH":"2025-11-24T18:48:23.496192","MEAN_MOTION":13.17648721,"ECCENTRICITY":0.0001637,"INCLINATION":87.9129,"RA_OF_ASC_NODE":46.5186,"ARG_OF_PERICENTER":104.1767,"MEAN_ANOMALY":255.9546,"EPHEMERIS_TYPE":0,"CLASSIFICATION_TYPE":"U","NORAD_CAT_ID":55173,"ELEMENT_SET_NO":999,"REV_AT_EPOCH":14066,"BSTAR":0.00016471,"MEAN_MOTION_DOT":7.7e-7,"MEAN_MOTION_DDOT":0},{"OBJECT_NAME":"ONEWEB-0711","OBJECT_ID":"2023-004AL","EPOCH":"2025-11-24T18:38:06.874080","MEAN_MOTION":13.1141975,"ECCENTRICITY":0.0001095,"INCLINATION":87.8869,"RA_OF_ASC_NODE":61.7651,"ARG_OF_PERICENTER":120.1284,"MEAN_ANOMALY":239.9953,"EPHEMERIS_TYPE":0,"CLASSIFICATION_TYPE":"U","NORAD_CAT_ID":55174,"ELEMENT_SET_NO":999,"REV_AT_EPOCH":13904,"BSTAR":0.00081728,"MEAN_MOTION_DOT":3.02e-6,"MEAN_MOTION_DDOT":0},{"OBJECT_NAME":"ONEWEB-0713","OBJECT_ID":"2023-004AM","EPOCH":"2025-11-25T00:34:35.414400","MEAN_MOTION":13.11419306,"ECCENTRICITY":0.0001391,"INCLINATION":87.8862,"RA_OF_ASC_NODE":61.7194,"ARG_OF_PERICENTER":111.1209,"MEAN_ANOMALY":249.0067,"EPHEMERIS_TYPE":0,"CLASSIFICATION_TYPE":"U","NORAD_CAT_ID":55175,"ELEMENT_SET_NO":999,"REV_AT_EPOCH":13906,"BSTAR":0.0011802,"MEAN_MOTION_DOT":4.31e-6,"MEAN_MOTION_DDOT":0},{"OBJECT_NAME":"ONEWEB-0715","OBJECT_ID":"2023-004AN","EPOCH":"2025-11-25T00:27:15.462144","MEAN_MOTION":13.11423825,"ECCENTRICITY":0.0001749,"INCLINATION":87.8866,"RA_OF_ASC_NODE":61.7206,"ARG_OF_PERICENTER":98.4613,"MEAN_ANOMALY":261.6713,"EPHEMERIS_TYPE":0,"CLASSIFICATION_TYPE":"U","NORAD_CAT_ID":55176,"ELEMENT_SET_NO":999,"REV_AT_EPOCH":13910,"BSTAR":-0.0030087,"MEAN_MOTION_DOT":-1.054e-5,"MEAN_MOTION_DDOT":0},{"OBJECT_NAME":"ONEWEB-0716","OBJECT_ID":"2023-004AP","EPOCH":"2025-11-24T18:38:39.884064","MEAN_MOTION":13.17647584,"ECCENTRICITY":0.0002079,"INCLINATION":87.9129,"RA_OF_ASC_NODE":46.5195,"ARG_OF_PERICENTER":106.2887,"MEAN_ANOMALY":253.8473,"EPHEMERIS_TYPE":0,"CLASSIFICATION_TYPE":"U","NORAD_CAT_ID":55177,"ELEMENT_SET_NO":999,"REV_AT_EPOCH":14066,"BSTAR":0.0002672,"MEAN_MOTION_DOT":1.17e-6,"MEAN_MOTION_DDOT":0},{"OBJECT_NAME":"ONEWEB-0717","OBJECT_ID":"2023-004AQ","EPOCH":"2025-11-24T18:14:22.032672","MEAN_MOTION":13.1764733,"ECCENTRICITY":0.0001133,"INCLINATION":87.9138,"RA_OF_ASC_NODE":46.4921,"ARG_OF_PERICENTER":109.1588,"MEAN_ANOMALY":250.9666,"EPHEMERIS_TYPE":0,"CLASSIFICATION_TYPE":"U","NORAD_CAT_ID":55178,"ELEMENT_SET_NO":999,"REV_AT_EPOCH":14071,"BSTAR":2.0698e-5,"MEAN_MOTION_DOT":2.1e-7,"MEAN_MOTION_DDOT":0},{"OBJECT_NAME":"ONEWEB-0719","OBJECT_ID":"2023-004AR","EPOCH":"2025-11-24T18:28:56.958816","MEAN_MOTION":13.17648137,"ECCENTRICITY":0.0001978,"INCLINATION":87.9136,"RA_OF_ASC_NODE":46.473,"ARG_OF_PERICENTER":108.6054,"MEAN_ANOMALY":251.5293,"EPHEMERIS_TYPE":0,"CLASSIFICATION_TYPE":"U","NORAD_CAT_ID":55179,"ELEMENT_SET_NO":999,"REV_AT_EPOCH":14066,"BSTAR":0.00025874,"MEAN_MOTION_DOT":1.13e-6,"MEAN_MOTION_DDOT":0},{"OBJECT_NAME":"ONEWEB-0530","OBJECT_ID":"2023-029A","EPOCH":"2025-11-25T00:02:23.853408","MEAN_MOTION":13.20772527,"ECCENTRICITY":0.0001426,"INCLINATION":87.9185,"RA_OF_ASC_NODE":315.2056,"ARG_OF_PERICENTER":97.0263,"MEAN_ANOMALY":263.1033,"EPHEMERIS_TYPE":0,"CLASSIFICATION_TYPE":"U","NORAD_CAT_ID":55796,"ELEMENT_SET_NO":999,"REV_AT_EPOCH":13419,"BSTAR":2.5133e-5,"MEAN_MOTION_DOT":2.3e-7,"MEAN_MOTION_DDOT":0},{"OBJECT_NAME":"ONEWEB-0534","OBJECT_ID":"2023-029B","EPOCH":"2025-11-24T23:44:13.151904","MEAN_MOTION":13.20773395,"ECCENTRICITY":0.0001984,"INCLINATION":87.918,"RA_OF_ASC_NODE":315.209,"ARG_OF_PERICENTER":89.1609,"MEAN_ANOMALY":270.9752,"EPHEMERIS_TYPE":0,"CLASSIFICATION_TYPE":"U","NORAD_CAT_ID":55797,"ELEMENT_SET_NO":999,"REV_AT_EPOCH":13419,"BSTAR":0.00033655,"MEAN_MOTION_DOT":1.5e-6,"MEAN_MOTION_DDOT":0},{"OBJECT_NAME":"ONEWEB-0556","OBJECT_ID":"2023-029C","EPOCH":"2025-11-24T23:53:18.070656","MEAN_MOTION":13.20770981,"ECCENTRICITY":0.0002331,"INCLINATION":87.9186,"RA_OF_ASC_NODE":315.2072,"ARG_OF_PERICENTER":111.6537,"MEAN_ANOMALY":248.4845,"EPHEMERIS_TYPE":0,"CLASSIFICATION_TYPE":"U","NORAD_CAT_ID":55798,"ELEMENT_SET_NO":999,"REV_AT_EPOCH":13419,"BSTAR":9.2478e-5,"MEAN_MOTION_DOT":5.1e-7,"MEAN_MOTION_DDOT":0},{"OBJECT_NAME":"ONEWEB-0562","OBJECT_ID":"2023-029D","EPOCH":"2025-11-24T23:35:06.567360","MEAN_MOTION":13.20770284,"ECCENTRICITY":0.0001502,"INCLINATION":87.9179,"RA_OF_ASC_NODE":315.1927,"ARG_OF_PERICENTER":115.5354,"MEAN_ANOMALY":244.5935,"EPHEMERIS_TYPE":0,"CLASSIFICATION_TYPE":"U","NORAD_CAT_ID":55799,"ELEMENT_SET_NO":999,"REV_AT_EPOCH":13419,"BSTAR":0.00022411,"MEAN_MOTION_DOT":1.04e-6,"MEAN_MOTION_DDOT":0},{"OBJECT_NAME":"ONEWEB-0563","OBJECT_ID":"2023-029E","EPOCH":"2025-11-24T23:26:02.268096","MEAN_MOTION":13.20773461,"ECCENTRICITY":0.0002128,"INCLINATION":87.9186,"RA_OF_ASC_NODE":315.22,"ARG_OF_PERICENTER":89.769,"MEAN_ANOMALY":270.3688,"EPHEMERIS_TYPE":0,"CLASSIFICATION_TYPE":"U","NORAD_CAT_ID":55800,"ELEMENT_SET_NO":999,"REV_AT_EPOCH":13418,"BSTAR":0.00021085,"MEAN_MOTION_DOT":9.9e-7,"MEAN_MOTION_DDOT":0}]
