ONEWEB-0627             
1 55168U 23004AE  25328.71779758  .00000058  00000+0  11598-3 0  9994
2 55168  87.9122  46.5400 0001248 110.9634 249.1631 13.17648553140659
ONEWEB-0628             
1 55169U 23004AF  25329.08845098 -.00000630  00000+0 -17865-2 0  9997
2 55169  87.8954  31.1950 0001568 123.1424 236.9855 13.12446708141263
ONEWEB-0629             
1 55170U 23004AG  25329.14893530  .00000158  00000+0  37383-3 0  9991
2 55170  87.9129  46.4518 0001861 112.9393 247.1935 13.17651984140717
ONEWEB-0631             
1 55171U 23004AH  25329.06922233  .00000072  00000+0  14934-3 0  9998
2 55171  87.9202  15.9739 0001639  82.3679 277.7639 13.18685193142774
ONEWEB-0709             
1 55172U 23004AJ  25328.72900271  .00000249  00000+0  66626-3 0  9990
2 55172  87.8861  61.8020 0002100  81.8330 278.3037 13.11415042139075
ONEWEB-0710             
1 55173U 23004AK  25328.78360528  .00000077  00000+0  16471-3 0  9994
2 55173  87.9129  46.5186 0001637 104.1767 255.9546 13.17648721140665
ONEWEB-0711             
1 55174U 23004AL  25328.77646845  .00000302  00000+0  81728-3 0  9991
2 55174  87.8869  61.7651 0001095 120.1284 239.9953 13.11419750139048
ONEWEB-0713             
1 55175U 23004AM  25329.02402100  .00000431  00000+0  11802-2 0  9993
2 55175  87.8862  61.7194 0001391 111.1209 249.0067 13.11419306139067
ONEWEB-0715             
1 55176U 23004AN  25329.01892896 -.00001054  00000+0 -30087-2 0  9998
2 55176  87.8866  61.7206 0001749  98.4613 261.6713 13.11423825139103
ONEWEB-0716             
1 55177U 23004AP  25328.77685051  .00000117  00000+0  26720-3 0  9991
2 55177  87.9129  46.5195 0002079 106.2887 253.8473 13.17647584140668
ONEWEB-0717             
1 55178U 23004AQ  25328.75997723  .00000021  00000+0  20698-4 0  9995
2 55178  87.9138  46.4921 0001133 109.1588 250.9666 13.17647330140712
ONEWEB-0719             
1 55179U 23004AR  25328.77010369  .00000113  00000+0  25874-3 0  9992
2 55179  87.9136  46.4730 0001978 108.6054 251.5293 13.17648137140661
ONEWEB-0530             
1 55796U 23029A   25329.00166497  .00000023  00000+0  25133-4 0  9994
2 55796  87.9185 315.2056 0001426  97.0263 263.1033 13.20772527134196
ONEWEB-0534             
1 55797U 23029B   25328.98904111  .00000150  00000+0  33655-3 0  9992
2 55797  87.9180 315.2090 0001984  89.1609 270.9752 13.20773395134193
ONEWEB-0556             
1 55798U 23029C   25328.99534804  .00000051  00000+0  92478-4 0  9991
2 55798  87.9186 315.2072 0002331 111.6537 248.4845 13.20770981134199
ONEWEB-0562             
1 55799U 23029D   25328.98271490  .00000104  00000+0  22411-3 0  9998
2 55799  87.9179 315.1927 0001502 115.5354 244.5935 13.20770284134192
ONEWEB-0563             
1 55800U 23029E   25328.97641514  .00000099  00000+0  21085-3 0  9997
2 55800  87.9186 315.2200 0002128  89.7690 270.3688 13.20773461134189
